iso_code2,iso_code3,country,country_names_all,bat_country_coronavirus
AF,AFG,"""Afghanistan""","(""Afghanistan""[All Fields] OR ""Islamic Republic of Afghanistan""[All Fields])","(""bat""[All Fields] OR ""bats""[All Fields] OR ""Chiroptera""[All Fields]) AND (""Afghanistan""[All Fields] OR ""Islamic Republic of Afghanistan""[All Fields]) AND (""coronavirus""[All Fields] OR ""coronaviruses""[All Fields])"
AX,ALA,"""Aland_Islands""","(""Aland Islands""[All Fields])","(""bat""[All Fields] OR ""bats""[All Fields] OR ""Chiroptera""[All Fields]) AND (""Aland Islands""[All Fields]) AND (""coronavirus""[All Fields] OR ""coronaviruses""[All Fields])"
AL,ALB,"""Albania""","(""Albania""[All Fields])","(""bat""[All Fields] OR ""bats""[All Fields] OR ""Chiroptera""[All Fields]) AND (""Albania""[All Fields]) AND (""coronavirus""[All Fields] OR ""coronaviruses""[All Fields])"
DZ,DZA,"""Algeria""","(""Algeria""[All Fields] OR ""al-Jaz ’ir""[All Fields] OR ""Arbanon""[All Fields])","(""bat""[All Fields] OR ""bats""[All Fields] OR ""Chiroptera""[All Fields]) AND (""Algeria""[All Fields] OR ""al-Jaz ’ir""[All Fields] OR ""Arbanon""[All Fields]) AND (""coronavirus""[All Fields] OR ""coronaviruses""[All Fields])"
AS,ASM,"""American_Samoa""","(""American Samoa""[All Fields])","(""bat""[All Fields] OR ""bats""[All Fields] OR ""Chiroptera""[All Fields]) AND (""American Samoa""[All Fields]) AND (""coronavirus""[All Fields] OR ""coronaviruses""[All Fields])"
AD,AND,"""Andorra""","(""Andorra""[All Fields] OR ""Principat d'Andorra""[All Fields])","(""bat""[All Fields] OR ""bats""[All Fields] OR ""Chiroptera""[All Fields]) AND (""Andorra""[All Fields] OR ""Principat d'Andorra""[All Fields]) AND (""coronavirus""[All Fields] OR ""coronaviruses""[All Fields])"
AO,AGO,"""Angola""","(""Angola""[All Fields])","(""bat""[All Fields] OR ""bats""[All Fields] OR ""Chiroptera""[All Fields]) AND (""Angola""[All Fields]) AND (""coronavirus""[All Fields] OR ""coronaviruses""[All Fields])"
AI,AIA,"""Anguilla""","(""Anguilla""[All Fields])","(""bat""[All Fields] OR ""bats""[All Fields] OR ""Chiroptera""[All Fields]) AND (""Anguilla""[All Fields]) AND (""coronavirus""[All Fields] OR ""coronaviruses""[All Fields])"
AQ,ATA,"""Antarctica""","(""Antarctica""[All Fields])","(""bat""[All Fields] OR ""bats""[All Fields] OR ""Chiroptera""[All Fields]) AND (""Antarctica""[All Fields]) AND (""coronavirus""[All Fields] OR ""coronaviruses""[All Fields])"
AG,ATG,"""Antigua_and_Barbuda""","(""Antigua""[All Fields] OR ""Barbuda""[All Fields] OR ""Antigua and Barbuda""[All Fields])","(""bat""[All Fields] OR ""bats""[All Fields] OR ""Chiroptera""[All Fields]) AND (""Antigua""[All Fields] OR ""Barbuda""[All Fields] OR ""Antigua and Barbuda""[All Fields]) AND (""coronavirus""[All Fields] OR ""coronaviruses""[All Fields])"
AR,ARG,"""Argentina""","(""Argentina""[All Fields] OR ""Argentine""[All Fields] OR ""United Provinces of the Río de la Plata""[All Fields])","(""bat""[All Fields] OR ""bats""[All Fields] OR ""Chiroptera""[All Fields]) AND (""Argentina""[All Fields] OR ""Argentine""[All Fields] OR ""United Provinces of the Río de la Plata""[All Fields]) AND (""coronavirus""[All Fields] OR ""coronaviruses""[All Fields])"
AM,ARM,"""Armenia""","(""Armenia""[All Fields] OR ""Hayastan""[All Fields])","(""bat""[All Fields] OR ""bats""[All Fields] OR ""Chiroptera""[All Fields]) AND (""Armenia""[All Fields] OR ""Hayastan""[All Fields]) AND (""coronavirus""[All Fields] OR ""coronaviruses""[All Fields])"
AW,ABW,"""Aruba""","(""Aruba""[All Fields])","(""bat""[All Fields] OR ""bats""[All Fields] OR ""Chiroptera""[All Fields]) AND (""Aruba""[All Fields]) AND (""coronavirus""[All Fields] OR ""coronaviruses""[All Fields])"
AU,AUS,"""Australia""","(""Australia""[All Fields] OR ""New Holland""[All Fields])","(""bat""[All Fields] OR ""bats""[All Fields] OR ""Chiroptera""[All Fields]) AND (""Australia""[All Fields] OR ""New Holland""[All Fields]) AND (""coronavirus""[All Fields] OR ""coronaviruses""[All Fields])"
AT,AUT,"""Austria""","(""Austria""[All Fields] OR ""Österreich""[All Fields])","(""bat""[All Fields] OR ""bats""[All Fields] OR ""Chiroptera""[All Fields]) AND (""Austria""[All Fields] OR ""Österreich""[All Fields]) AND (""coronavirus""[All Fields] OR ""coronaviruses""[All Fields])"
AZ,AZE,"""Azerbaijan""","(""Azerbaijan""[All Fields] OR ""Azrbaycan Respublikası""[All Fields])","(""bat""[All Fields] OR ""bats""[All Fields] OR ""Chiroptera""[All Fields]) AND (""Azerbaijan""[All Fields] OR ""Azrbaycan Respublikası""[All Fields]) AND (""coronavirus""[All Fields] OR ""coronaviruses""[All Fields])"
BS,BHS,"""Bahamas""","(""Bahamas""[All Fields])","(""bat""[All Fields] OR ""bats""[All Fields] OR ""Chiroptera""[All Fields]) AND (""Bahamas""[All Fields]) AND (""coronavirus""[All Fields] OR ""coronaviruses""[All Fields])"
BH,BHR,"""Bahrain""","(""Bahrain""[All Fields] OR ""Mamlakat al-Bahrayn""[All Fields])","(""bat""[All Fields] OR ""bats""[All Fields] OR ""Chiroptera""[All Fields]) AND (""Bahrain""[All Fields] OR ""Mamlakat al-Bahrayn""[All Fields]) AND (""coronavirus""[All Fields] OR ""coronaviruses""[All Fields])"
BD,BGD,"""Bangladesh""","(""Bangladesh""[All Fields] OR ""Bengal""[All Fields])","(""bat""[All Fields] OR ""bats""[All Fields] OR ""Chiroptera""[All Fields]) AND (""Bangladesh""[All Fields] OR ""Bengal""[All Fields]) AND (""coronavirus""[All Fields] OR ""coronaviruses""[All Fields])"
BB,BRB,"""Barbados""","(""Barbados""[All Fields])","(""bat""[All Fields] OR ""bats""[All Fields] OR ""Chiroptera""[All Fields]) AND (""Barbados""[All Fields]) AND (""coronavirus""[All Fields] OR ""coronaviruses""[All Fields])"
BY,BLR,"""Belarus""","(""Belarus""[All Fields] OR ""Gudija""[All Fields] OR ""Byelorussia""[All Fields])","(""bat""[All Fields] OR ""bats""[All Fields] OR ""Chiroptera""[All Fields]) AND (""Belarus""[All Fields] OR ""Gudija""[All Fields] OR ""Byelorussia""[All Fields]) AND (""coronavirus""[All Fields] OR ""coronaviruses""[All Fields])"
BE,BEL,"""Belgium""","(""Belgium""[All Fields] OR ""Belgien""[All Fields] OR ""Royaume de Belgique""[All Fields] OR ""Königreich Belgien""[All Fields])","(""bat""[All Fields] OR ""bats""[All Fields] OR ""Chiroptera""[All Fields]) AND (""Belgium""[All Fields] OR ""Belgien""[All Fields] OR ""Royaume de Belgique""[All Fields] OR ""Königreich Belgien""[All Fields]) AND (""coronavirus""[All Fields] OR ""coronaviruses""[All Fields])"
BZ,BLZ,"""Belize""","(""Belize""[All Fields] OR ""British Honduras""[All Fields])","(""bat""[All Fields] OR ""bats""[All Fields] OR ""Chiroptera""[All Fields]) AND (""Belize""[All Fields] OR ""British Honduras""[All Fields]) AND (""coronavirus""[All Fields] OR ""coronaviruses""[All Fields])"
BJ,BEN,"""Benin""","(""Benin""[All Fields] OR ""Dahomey""[All Fields])","(""bat""[All Fields] OR ""bats""[All Fields] OR ""Chiroptera""[All Fields]) AND (""Benin""[All Fields] OR ""Dahomey""[All Fields]) AND (""coronavirus""[All Fields] OR ""coronaviruses""[All Fields])"
BM,BMU,"""Bermuda""","(""Bermuda""[All Fields])","(""bat""[All Fields] OR ""bats""[All Fields] OR ""Chiroptera""[All Fields]) AND (""Bermuda""[All Fields]) AND (""coronavirus""[All Fields] OR ""coronaviruses""[All Fields])"
BT,BTN,"""Bhutan""","(""Bhutan""[All Fields] OR ""Druk Gyal Khap""[All Fields])","(""bat""[All Fields] OR ""bats""[All Fields] OR ""Chiroptera""[All Fields]) AND (""Bhutan""[All Fields] OR ""Druk Gyal Khap""[All Fields]) AND (""coronavirus""[All Fields] OR ""coronaviruses""[All Fields])"
BO,BOL,"""Bolivia""","(""Bolivia""[All Fields] OR ""Republic of Bolívar""[All Fields])","(""bat""[All Fields] OR ""bats""[All Fields] OR ""Chiroptera""[All Fields]) AND (""Bolivia""[All Fields] OR ""Republic of Bolívar""[All Fields]) AND (""coronavirus""[All Fields] OR ""coronaviruses""[All Fields])"
BA,BIH,"""Bosnia_and_Herzegovina""","(""Bosnia""[All Fields] OR ""Herzegovina""[All Fields] OR ""Bosnia and Herzegovina""[All Fields])","(""bat""[All Fields] OR ""bats""[All Fields] OR ""Chiroptera""[All Fields]) AND (""Bosnia""[All Fields] OR ""Herzegovina""[All Fields] OR ""Bosnia and Herzegovina""[All Fields]) AND (""coronavirus""[All Fields] OR ""coronaviruses""[All Fields])"
BW,BWA,"""Botswana""","(""Botswana""[All Fields] OR ""Bechuanaland""[All Fields])","(""bat""[All Fields] OR ""bats""[All Fields] OR ""Chiroptera""[All Fields]) AND (""Botswana""[All Fields] OR ""Bechuanaland""[All Fields]) AND (""coronavirus""[All Fields] OR ""coronaviruses""[All Fields])"
BV,BVT,"""Bouvet_Island""","(""Bouvet Island""[All Fields])","(""bat""[All Fields] OR ""bats""[All Fields] OR ""Chiroptera""[All Fields]) AND (""Bouvet Island""[All Fields]) AND (""coronavirus""[All Fields] OR ""coronaviruses""[All Fields])"
BR,BRA,"""Brazil""","(""Brazil""[All Fields] OR ""Brasil""[All Fields] OR ""Terra de Santa Cruz""[All Fields])","(""bat""[All Fields] OR ""bats""[All Fields] OR ""Chiroptera""[All Fields]) AND (""Brazil""[All Fields] OR ""Brasil""[All Fields] OR ""Terra de Santa Cruz""[All Fields]) AND (""coronavirus""[All Fields] OR ""coronaviruses""[All Fields])"
IO,IOT,"""British_Indian_Ocean_Territory""","(""British Indian Ocean Territory""[All Fields])","(""bat""[All Fields] OR ""bats""[All Fields] OR ""Chiroptera""[All Fields]) AND (""British Indian Ocean Territory""[All Fields]) AND (""coronavirus""[All Fields] OR ""coronaviruses""[All Fields])"
VG,VGB,"""British_Virgin_Islands""","(""Virgin_Islands,_British""[All Fields] OR ""British Virgin Islands""[All Fields])","(""bat""[All Fields] OR ""bats""[All Fields] OR ""Chiroptera""[All Fields]) AND (""Virgin_Islands,_British""[All Fields] OR ""British Virgin Islands""[All Fields]) AND (""coronavirus""[All Fields] OR ""coronaviruses""[All Fields])"
BN,BRN,"""Brunei""","(""Brunei""[All Fields] OR ""Darussalam""[All Fields] OR ""Brunei Darussalam""[All Fields])","(""bat""[All Fields] OR ""bats""[All Fields] OR ""Chiroptera""[All Fields]) AND (""Brunei""[All Fields] OR ""Darussalam""[All Fields] OR ""Brunei Darussalam""[All Fields]) AND (""coronavirus""[All Fields] OR ""coronaviruses""[All Fields])"
BG,BGR,"""Bulgaria""","(""Bulgaria""[All Fields] OR ""Republika Bulgariya""[All Fields])","(""bat""[All Fields] OR ""bats""[All Fields] OR ""Chiroptera""[All Fields]) AND (""Bulgaria""[All Fields] OR ""Republika Bulgariya""[All Fields]) AND (""coronavirus""[All Fields] OR ""coronaviruses""[All Fields])"
BF,BFA,"""Burkina_Faso""","(""Burkina Faso""[All Fields] OR ""Volta""[All Fields] OR ""Bourkina-Fasso""[All Fields])","(""bat""[All Fields] OR ""bats""[All Fields] OR ""Chiroptera""[All Fields]) AND (""Burkina Faso""[All Fields] OR ""Volta""[All Fields] OR ""Bourkina-Fasso""[All Fields]) AND (""coronavirus""[All Fields] OR ""coronaviruses""[All Fields])"
BI,BDI,"""Burundi""","(""Burundi""[All Fields] OR ""Republika y'Uburundi""[All Fields])","(""bat""[All Fields] OR ""bats""[All Fields] OR ""Chiroptera""[All Fields]) AND (""Burundi""[All Fields] OR ""Republika y'Uburundi""[All Fields]) AND (""coronavirus""[All Fields] OR ""coronaviruses""[All Fields])"
KH,KHM,"""Cambodia""","(""Cambodia""""[All Fields] OR ""Kampuchea""[All Fields] OR ""Khmer Republic""[All Fields] OR ""Cambodge""[All Fields])","(""bat""[All Fields] OR ""bats""[All Fields] OR ""Chiroptera""[All Fields]) AND (""Cambodia""""[All Fields] OR ""Kampuchea""[All Fields] OR ""Khmer Republic""[All Fields] OR ""Cambodge""[All Fields]) AND (""coronavirus""[All Fields] OR ""coronaviruses""[All Fields])"
CM,CMR,"""Cameroon""","(""Cameroon""[All Fields] OR ""Kamerun""[All Fields])","(""bat""[All Fields] OR ""bats""[All Fields] OR ""Chiroptera""[All Fields]) AND (""Cameroon""[All Fields] OR ""Kamerun""[All Fields]) AND (""coronavirus""[All Fields] OR ""coronaviruses""[All Fields])"
CA,CAN,"""Canada""","(""Canada""[All Fields])","(""bat""[All Fields] OR ""bats""[All Fields] OR ""Chiroptera""[All Fields]) AND (""Canada""[All Fields]) AND (""coronavirus""[All Fields] OR ""coronaviruses""[All Fields])"
CV,CPV,"""Cape_Verde""","(""Cape Verde""[All Fields] OR ""Cabo Verde""[All Fields])","(""bat""[All Fields] OR ""bats""[All Fields] OR ""Chiroptera""[All Fields]) AND (""Cape Verde""[All Fields] OR ""Cabo Verde""[All Fields]) AND (""coronavirus""[All Fields] OR ""coronaviruses""[All Fields])"
KY,CYM,"""Cayman_Islands""","(""Cayman Islands[All Fields]""","(""bat""[All Fields] OR ""bats""[All Fields] OR ""Chiroptera""[All Fields]) AND (""Cayman Islands[All Fields]"" AND (""coronavirus""[All Fields] OR ""coronaviruses""[All Fields])"
CF,CAF,"""Central_African_Republic""","(""Central African Republic[All Fields]"" OR ""Oubangui-Chari""[All Fields] OR ""Ubangi-Shari""[All Fields] OR ""République Centrafricaine""[All Fields] OR ""Empire Centrafricain""[All Fields] OR ""Central African Empire""[All Fields])","(""bat""[All Fields] OR ""bats""[All Fields] OR ""Chiroptera""[All Fields]) AND (""Central African Republic[All Fields]"" OR ""Oubangui-Chari""[All Fields] OR ""Ubangi-Shari""[All Fields] OR ""République Centrafricaine""[All Fields] OR ""Empire Centrafricain""[All Fields] OR ""Central African Empire""[All Fields]) AND (""coronavirus""[All Fields] OR ""coronaviruses""[All Fields])"
TD,TCD,"""Chad""","(""Chad""[All Fields] OR ""République du Tchad""[All Fields])","(""bat""[All Fields] OR ""bats""[All Fields] OR ""Chiroptera""[All Fields]) AND (""Chad""[All Fields] OR ""République du Tchad""[All Fields]) AND (""coronavirus""[All Fields] OR ""coronaviruses""[All Fields])"
CL,CHL,"""Chile""","(""Chile""[All Fields])","(""bat""[All Fields] OR ""bats""[All Fields] OR ""Chiroptera""[All Fields]) AND (""Chile""[All Fields]) AND (""coronavirus""[All Fields] OR ""coronaviruses""[All Fields])"
CN,CHN,"""China""","(""China""[All Fields])","(""bat""[All Fields] OR ""bats""[All Fields] OR ""Chiroptera""[All Fields]) AND (""China""[All Fields]) AND (""coronavirus""[All Fields] OR ""coronaviruses""[All Fields])"
CX,CXR,"""Christmas_Island""","(""Christmas Island""[All Fields])","(""bat""[All Fields] OR ""bats""[All Fields] OR ""Chiroptera""[All Fields]) AND (""Christmas Island""[All Fields]) AND (""coronavirus""[All Fields] OR ""coronaviruses""[All Fields])"
CC,CCK,"""Cocos_Islands""","(""Cocos Islands""[All Fields])","(""bat""[All Fields] OR ""bats""[All Fields] OR ""Chiroptera""[All Fields]) AND (""Cocos Islands""[All Fields]) AND (""coronavirus""[All Fields] OR ""coronaviruses""[All Fields])"
CO,COL,"""Colombia""","(""Colombia""[All Fields] OR ""Confederación Granadina""[All Fields] OR ""República de la Nueva Granada""[All Fields])","(""bat""[All Fields] OR ""bats""[All Fields] OR ""Chiroptera""[All Fields]) AND (""Colombia""[All Fields] OR ""Confederación Granadina""[All Fields] OR ""República de la Nueva Granada""[All Fields]) AND (""coronavirus""[All Fields] OR ""coronaviruses""[All Fields])"
KM,COM,"""Comoros""","(""Comoros""[All Fields] OR ""Comores""[All Fields])","(""bat""[All Fields] OR ""bats""[All Fields] OR ""Chiroptera""[All Fields]) AND (""Comoros""[All Fields] OR ""Comores""[All Fields]) AND (""coronavirus""[All Fields] OR ""coronaviruses""[All Fields])"
CG,COG,"""Congo""","(""Republic of Congo""[All Fields] OR ""Congo Brazzaville""[All Fields] OR ""French Congo""[All Fields])","(""bat""[All Fields] OR ""bats""[All Fields] OR ""Chiroptera""[All Fields]) AND (""Republic of Congo""[All Fields] OR ""Congo Brazzaville""[All Fields] OR ""French Congo""[All Fields]) AND (""coronavirus""[All Fields] OR ""coronaviruses""[All Fields])"
CK,COK,"""Cook_Islands""","(""Cook Islands""[All Fields])","(""bat""[All Fields] OR ""bats""[All Fields] OR ""Chiroptera""[All Fields]) AND (""Cook Islands""[All Fields]) AND (""coronavirus""[All Fields] OR ""coronaviruses""[All Fields])"
CR,CRI,"""Costa_Rica""","(""Costa Rica""[All Fields])","(""bat""[All Fields] OR ""bats""[All Fields] OR ""Chiroptera""[All Fields]) AND (""Costa Rica""[All Fields]) AND (""coronavirus""[All Fields] OR ""coronaviruses""[All Fields])"
CI,CIV,"""Cote_d'Ivoire""","(""Cote d'Ivoire""[All Fields] OR ""Ivory Coast""[All Fields])","(""bat""[All Fields] OR ""bats""[All Fields] OR ""Chiroptera""[All Fields]) AND (""Cote d'Ivoire""[All Fields] OR ""Ivory Coast""[All Fields]) AND (""coronavirus""[All Fields] OR ""coronaviruses""[All Fields])"
HR,HRV,"""Croatia""","(""Croatia""[All Fields] OR ""Hrvatska""[All Fields])","(""bat""[All Fields] OR ""bats""[All Fields] OR ""Chiroptera""[All Fields]) AND (""Croatia""[All Fields] OR ""Hrvatska""[All Fields]) AND (""coronavirus""[All Fields] OR ""coronaviruses""[All Fields])"
CU,CUB,"""Cuba""","(""Cuba""[All Fields])","(""bat""[All Fields] OR ""bats""[All Fields] OR ""Chiroptera""[All Fields]) AND (""Cuba""[All Fields]) AND (""coronavirus""[All Fields] OR ""coronaviruses""[All Fields])"
CW,CUW,"""Curacao""","(""Curacao""[All Fields])","(""bat""[All Fields] OR ""bats""[All Fields] OR ""Chiroptera""[All Fields]) AND (""Curacao""[All Fields]) AND (""coronavirus""[All Fields] OR ""coronaviruses""[All Fields])"
CY,CYP,"""Cyprus""","(""Cyprus""[All Fields])","(""bat""[All Fields] OR ""bats""[All Fields] OR ""Chiroptera""[All Fields]) AND (""Cyprus""[All Fields]) AND (""coronavirus""[All Fields] OR ""coronaviruses""[All Fields])"
CZ,CZE,"""Czech_Republic""","(""Czech Republic""[All Fields] OR ""Bohemia""[All Fields] OR ""Czech Socialist Republic""[All Fields] OR ""Czechland""[All Fields])","(""bat""[All Fields] OR ""bats""[All Fields] OR ""Chiroptera""[All Fields]) AND (""Czech Republic""[All Fields] OR ""Bohemia""[All Fields] OR ""Czech Socialist Republic""[All Fields] OR ""Czechland""[All Fields]) AND (""coronavirus""[All Fields] OR ""coronaviruses""[All Fields])"
CD,COD,"""Democratic_Republic_of_the_Congo""","(""Congo, the Democratic Republic of""[All Fields] OR ""Democratic Republic of  Congo""[All Fields])","(""bat""[All Fields] OR ""bats""[All Fields] OR ""Chiroptera""[All Fields]) AND (""Congo, the Democratic Republic of""[All Fields] OR ""Democratic Republic of  Congo""[All Fields]) AND (""coronavirus""[All Fields] OR ""coronaviruses""[All Fields])"
DK,DNK,"""Denmark""","(""Denmark""[All Fields] OR ""Danmark""[All Fields])","(""bat""[All Fields] OR ""bats""[All Fields] OR ""Chiroptera""[All Fields]) AND (""Denmark""[All Fields] OR ""Danmark""[All Fields]) AND (""coronavirus""[All Fields] OR ""coronaviruses""[All Fields])"
DJ,DJI,"""Djibouti""","(""Djibouti""[All Fields] OR ""French Territory of the Afars and the Issas""[All Fields] OR ""French Somaliland""[All Fields] OR ""Obock Territory""[All Fields])","(""bat""[All Fields] OR ""bats""[All Fields] OR ""Chiroptera""[All Fields]) AND (""Djibouti""[All Fields] OR ""French Territory of the Afars and the Issas""[All Fields] OR ""French Somaliland""[All Fields] OR ""Obock Territory""[All Fields]) AND (""coronavirus""[All Fields] OR ""coronaviruses""[All Fields])"
DM,DMA,"""Dominica""","(""Dominica""[All Fields])","(""bat""[All Fields] OR ""bats""[All Fields] OR ""Chiroptera""[All Fields]) AND (""Dominica""[All Fields]) AND (""coronavirus""[All Fields] OR ""coronaviruses""[All Fields])"
DO,DOM,"""Dominican_Republic""","(""Dominican Republic""[All Fields])","(""bat""[All Fields] OR ""bats""[All Fields] OR ""Chiroptera""[All Fields]) AND""Dominican_Republic""AND (""coronavirus""[All Fields] OR ""coronaviruses""[All Fields])"
EC,ECU,"""Ecuador""","(""Ecuador""[All Fields])","(""bat""[All Fields] OR ""bats""[All Fields] OR ""Chiroptera""[All Fields]) AND (""Ecuador""[All Fields]) AND (""coronavirus""[All Fields] OR ""coronaviruses""[All Fields])"
EG,EGY,"""Egypt""","(""Egypt""[All Fields]) OR ""Aegyptus""[All Fields])","(""bat""[All Fields] OR ""bats""[All Fields] OR ""Chiroptera""[All Fields]) AND (""Egypt""[All Fields]) OR ""Aegyptus""[All Fields]) AND (""coronavirus""[All Fields] OR ""coronaviruses""[All Fields])"
SV,SLV,"""El_Salvador""","(""El Salvado""[All Fields])","(""bat""[All Fields] OR ""bats""[All Fields] OR ""Chiroptera""[All Fields]) AND (""El Salvado""[All Fields]) AND (""coronavirus""[All Fields] OR ""coronaviruses""[All Fields])"
GQ,GNQ,"""Equatorial_Guinea""","(""Equatorial Guinea""[All Fields])","(""bat""[All Fields] OR ""bats""[All Fields] OR ""Chiroptera""[All Fields]) AND (""Equatorial Guinea""[All Fields]) AND (""coronavirus""[All Fields] OR ""coronaviruses""[All Fields])"
ER,ERI,"""Eritrea""","(""Eritrea""[All Fields])","(""bat""[All Fields] OR ""bats""[All Fields] OR ""Chiroptera""[All Fields]) AND (""Eritrea""[All Fields]) AND (""coronavirus""[All Fields] OR ""coronaviruses""[All Fields])"
EE,EST,"""Estonia""","(""Estonia""[All Fields] OR ""Eesti""[All Fields] OR ""Viru""[All Fields] OR ""Estland""[All Fields])","(""bat""[All Fields] OR ""bats""[All Fields] OR ""Chiroptera""[All Fields]) AND (""Estonia""[All Fields] OR ""Eesti""[All Fields] OR ""Viru""[All Fields] OR ""Estland""[All Fields]) AND (""coronavirus""[All Fields] OR ""coronaviruses""[All Fields])"
ET,ETH,"""Ethiopia""","(""Ethiopia""[All Fields] OR ""Ayssinia""[All Fields] OR ""Al-Habasha""[All Fields] OR ""Habeshastan""[All Fields])","(""bat""[All Fields] OR ""bats""[All Fields] OR ""Chiroptera""[All Fields]) AND (""Ethiopia""[All Fields] OR ""Ayssinia""[All Fields] OR ""Al-Habasha""[All Fields] OR ""Habeshastan""[All Fields]) AND (""coronavirus""[All Fields] OR ""coronaviruses""[All Fields])"
FO,FRO,"""Faroe_Islands""","(""Faroe Islands""[All Fields])","(""bat""[All Fields] OR ""bats""[All Fields] OR ""Chiroptera""[All Fields]) AND (""Faroe Islands""[All Fields]) AND (""coronavirus""[All Fields] OR ""coronaviruses""[All Fields])"
FJ,FJI,"""Fiji""","(""Fiji""[All Fields])","(""bat""[All Fields] OR ""bats""[All Fields] OR ""Chiroptera""[All Fields]) AND (""Fiji""[All Fields]) AND (""coronavirus""[All Fields] OR ""coronaviruses""[All Fields])"
FI,FIN,"""Finland""","(""Finland""[All Fields] OR ""Suomen tasavalta""[All Fields] OR ""Suomi""[All Fields])","(""bat""[All Fields] OR ""bats""[All Fields] OR ""Chiroptera""[All Fields]) AND (""Finland""[All Fields] OR ""Suomen tasavalta""[All Fields] OR ""Suomi""[All Fields]) AND (""coronavirus""[All Fields] OR ""coronaviruses""[All Fields])"
FR,FRA,"""France""","(""France""[All Fields] OR ""French Republic""[All Fields] OR ""Gaul""[All Fields] OR ""République Française""[All Fields])","(""bat""[All Fields] OR ""bats""[All Fields] OR ""Chiroptera""[All Fields]) AND (""France""[All Fields] OR ""French Republic""[All Fields] OR ""Gaul""[All Fields] OR ""République Française""[All Fields]) AND (""coronavirus""[All Fields] OR ""coronaviruses""[All Fields])"
GF,GUF,"""French_Guiana""","(""French Guiana""[All Fields])","(""bat""[All Fields] OR ""bats""[All Fields] OR ""Chiroptera""[All Fields]) AND (""French Guiana""[All Fields]) AND (""coronavirus""[All Fields] OR ""coronaviruses""[All Fields])"
PF,PYF,"""French_Polynesia""","(""French Polynesia""[All Fields])","(""bat""[All Fields] OR ""bats""[All Fields] OR ""Chiroptera""[All Fields]) AND (""French Polynesia""[All Fields]) AND (""coronavirus""[All Fields] OR ""coronaviruses""[All Fields])"
TF,ATF,"""French_Southern_Territories""","(""French Southern Territories""[All Fields])","(""bat""[All Fields] OR ""bats""[All Fields] OR ""Chiroptera""[All Fields]) AND (""French Southern Territories""[All Fields]) AND (""coronavirus""[All Fields] OR ""coronaviruses""[All Fields])"
GA,GAB,"""Gabon""","(""Gabon""[All Fields] OR ""Gabonese Republic""[All Fields])","(""bat""[All Fields] OR ""bats""[All Fields] OR ""Chiroptera""[All Fields]) AND (""Gabon""[All Fields] OR ""Gabonese Republic""[All Fields]) AND (""coronavirus""[All Fields] OR ""coronaviruses""[All Fields])"
GM,GMB,"""Gambia""","(""Gambia""[All Fields])","(""bat""[All Fields] OR ""bats""[All Fields] OR ""Chiroptera""[All Fields]) AND (""Gambia""[All Fields]) AND (""coronavirus""[All Fields] OR ""coronaviruses""[All Fields])"
GE,GEO,"""Georgia""","(""Country of Georgia""[All Fields] OR ""Republic of Georgia""[All Fields] OR ""Iberia""[All Fields] OR ""Sakartvelo""[All Fields] OR ""Colchis""[All Fields])","(""bat""[All Fields] OR ""bats""[All Fields] OR ""Chiroptera""[All Fields]) AND (""Country of Georgia""[All Fields] OR ""Republic of Georgia""[All Fields] OR ""Iberia""[All Fields] OR ""Sakartvelo""[All Fields] OR ""Colchis""[All Fields]) AND (""coronavirus""[All Fields] OR ""coronaviruses""[All Fields])"
DE,DEU,"""Germany""","(""Germany""[All Fields] OR ""Deutschland""[All Fields] OR ""Germania""[All Fields])","(""bat""[All Fields] OR ""bats""[All Fields] OR ""Chiroptera""[All Fields]) AND (""Germany""[All Fields] OR ""Deutschland""[All Fields] OR ""Germania""[All Fields]) AND (""coronavirus""[All Fields] OR ""coronaviruses""[All Fields])"
GH,GHA,"""Ghana""","(""Ghana""[All Fields] OR ""Gold Coast""[All Fields])","(""bat""[All Fields] OR ""bats""[All Fields] OR ""Chiroptera""[All Fields]) AND (""Ghana""[All Fields] OR ""Gold Coast""[All Fields]) AND (""coronavirus""[All Fields] OR ""coronaviruses""[All Fields])"
GI,GIB,"""Gibraltar""","(""Gibraltar""[All Fields])","(""bat""[All Fields] OR ""bats""[All Fields] OR ""Chiroptera""[All Fields]) AND (""Gibraltar""[All Fields]) AND (""coronavirus""[All Fields] OR ""coronaviruses""[All Fields])"
GR,GRC,"""Greece""","(""Greece""[All Fields] OR ""Hellas""[All Fields] OR ""Yunanistan""[All Fields] OR ""Hellenic Republic""[All Fields])","(""bat""[All Fields] OR ""bats""[All Fields] OR ""Chiroptera""[All Fields]) AND (""Greece""[All Fields] OR ""Hellas""[All Fields] OR ""Yunanistan""[All Fields] OR ""Hellenic Republic""[All Fields]) AND (""coronavirus""[All Fields] OR ""coronaviruses""[All Fields])"
GL,GRL,"""Greenland""","(""Greenland""[All Fields])","(""bat""[All Fields] OR ""bats""[All Fields] OR ""Chiroptera""[All Fields]) AND (""Greenland""[All Fields]) AND (""coronavirus""[All Fields] OR ""coronaviruses""[All Fields])"
GD,GRD,"""Grenada""","(""Grenada""[All Fields])","(""bat""[All Fields] OR ""bats""[All Fields] OR ""Chiroptera""[All Fields]) AND (""Grenada""[All Fields]) AND (""coronavirus""[All Fields] OR ""coronaviruses""[All Fields])"
GP,GLP,"""Guadeloupe""","(""Guadeloupe""[All Fields])","(""bat""[All Fields] OR ""bats""[All Fields] OR ""Chiroptera""[All Fields]) AND (""Guadeloupe""[All Fields]) AND (""coronavirus""[All Fields] OR ""coronaviruses""[All Fields])"
GU,GUM,"""Guam""","(""Guam""[All Fields])","(""bat""[All Fields] OR ""bats""[All Fields] OR ""Chiroptera""[All Fields]) AND (""Guam""[All Fields]) AND (""coronavirus""[All Fields] OR ""coronaviruses""[All Fields])"
GT,GTM,"""Guatemala""","(""Guatemala""[All Fields])","(""bat""[All Fields] OR ""bats""[All Fields] OR ""Chiroptera""[All Fields]) AND (""Guatemala""[All Fields]) AND (""coronavirus""[All Fields] OR ""coronaviruses""[All Fields])"
GG,GGY,"""Guernsey""","(""Guernsey""[All Fields])","(""bat""[All Fields] OR ""bats""[All Fields] OR ""Chiroptera""[All Fields]) AND (""Guernsey""[All Fields]) AND (""coronavirus""[All Fields] OR ""coronaviruses""[All Fields])"
GW,GNB,"""Guinea-Bissau""","(""Guinea-Bissau""[All Fields] OR ""Guinea Bissau""[All Fields] OR ""Portuguese Guinea""[All Fields])","(""bat""[All Fields] OR ""bats""[All Fields] OR ""Chiroptera""[All Fields]) AND (""Guinea-Bissau""[All Fields] OR ""Guinea Bissau""[All Fields] OR ""Portuguese Guinea""[All Fields]) AND (""coronavirus""[All Fields] OR ""coronaviruses""[All Fields])"
GN,GIN,"""Guinea""","(""Guinea""[All Fields])","(""bat""[All Fields] OR ""bats""[All Fields] OR ""Chiroptera""[All Fields]) AND (""Guinea""[All Fields]) AND (""coronavirus""[All Fields] OR ""coronaviruses""[All Fields])"
GY,GUY,"""Guyana""","(""Guyana""[All Fields])","(""bat""[All Fields] OR ""bats""[All Fields] OR ""Chiroptera""[All Fields]) AND (""Guyana""[All Fields]) AND (""coronavirus""[All Fields] OR ""coronaviruses""[All Fields])"
HT,HTI,"""Haiti""","(""Haiti""[All Fields])","(""bat""[All Fields] OR ""bats""[All Fields] OR ""Chiroptera""[All Fields]) AND (""Haiti""[All Fields]) AND (""coronavirus""[All Fields] OR ""coronaviruses""[All Fields])"
HM,HMD,"""Heard_Island_""","(""Heard Island and McDonald Islands""[All Fields] OR ""Heard Island""[All Fields] OR ""McDonald Islands""[All Fields])","(""bat""[All Fields] OR ""bats""[All Fields] OR ""Chiroptera""[All Fields]) AND (""Heard Island and McDonald Islands""[All Fields] OR ""Heard Island""[All Fields] OR ""McDonald Islands""[All Fields]) AND (""coronavirus""[All Fields] OR ""coronaviruses""[All Fields])"
VA,VAT,"""Holy_See""","(""Holy See""[All Fields] OR ""Vatican City""[All Fields]) OR ""Vatican""[All Fields])","(""bat""[All Fields] OR ""bats""[All Fields] OR ""Chiroptera""[All Fields]) AND (""Holy See""[All Fields] OR ""Vatican City""[All Fields]) OR ""Vatican""[All Fields]) AND (""coronavirus""[All Fields] OR ""coronaviruses""[All Fields])"
HN,HND,"""Honduras""","(""Honduras""[All Fields])","(""bat""[All Fields] OR ""bats""[All Fields] OR ""Chiroptera""[All Fields]) AND (""Honduras""[All Fields]) AND (""coronavirus""[All Fields] OR ""coronaviruses""[All Fields])"
HK,HKG,"""Hong_Kong""","(""Hong Kong""[All Fields])","(""bat""[All Fields] OR ""bats""[All Fields] OR ""Chiroptera""[All Fields]) AND (""Hong Kong""[All Fields]) AND (""coronavirus""[All Fields] OR ""coronaviruses""[All Fields])"
HU,HUN,"""Hungary""","(""Hungary""[All Fields] OR ""Hungarian People's Republic""[All Fields] OR ""Hungaria""[All Fields])","(""bat""[All Fields] OR ""bats""[All Fields] OR ""Chiroptera""[All Fields]) AND (""Hungary""[All Fields] OR ""Hungarian People's Republic""[All Fields] OR ""Hungaria""[All Fields]) AND (""coronavirus""[All Fields] OR ""coronaviruses""[All Fields])"
IS,ISL,"""Iceland""","(""Iceland""[All Fields])","(""bat""[All Fields] OR ""bats""[All Fields] OR ""Chiroptera""[All Fields]) AND (""Iceland""[All Fields]) AND (""coronavirus""[All Fields] OR ""coronaviruses""[All Fields])"
IN,IND,"""India""","(""India""[All Fields] OR ""Bharatham""[All Fields] OR ""Bh_rat""[All Fields])","(""bat""[All Fields] OR ""bats""[All Fields] OR ""Chiroptera""[All Fields]) AND (""India""[All Fields] OR ""Bharatham""[All Fields] OR ""Bh_rat""[All Fields]) AND (""coronavirus""[All Fields] OR ""coronaviruses""[All Fields])"
ID,IDN,"""Indonesia""","(""Indonesia""[All Fields] OR ""Insulinde""[All Fields] OR ""Dutch East Indies""[All Fields] OR ""Indunesia""[All Fields])","(""bat""[All Fields] OR ""bats""[All Fields] OR ""Chiroptera""[All Fields]) AND (""Indonesia""[All Fields] OR ""Insulinde""[All Fields] OR ""Dutch East Indies""[All Fields] OR ""Indunesia""[All Fields]) AND (""coronavirus""[All Fields] OR ""coronaviruses""[All Fields])"
IR,IRN,"""Iran""","(""Iran""[All Fields] OR ""Islamic Republic of Iran""[All Fields] OR ""Islamic Republic""[All Fields] OR ""Persia""[All Fields] OR ""Faris""[All Fields])","(""bat""[All Fields] OR ""bats""[All Fields] OR ""Chiroptera""[All Fields]) AND (""Iran""[All Fields] OR ""Islamic Republic of Iran""[All Fields] OR ""Islamic Republic""[All Fields] OR ""Persia""[All Fields] OR ""Faris""[All Fields]) AND (""coronavirus""[All Fields] OR ""coronaviruses""[All Fields])"
IQ,IRQ,"""Iraq""","(""Iraq""[All Fields] OR ""Republic of Iraq""[All Fields] OR ""Mesopotamia""[All Fields])","(""bat""[All Fields] OR ""bats""[All Fields] OR ""Chiroptera""[All Fields]) AND (""Iraq""[All Fields] OR ""Republic of Iraq""[All Fields] OR ""Mesopotamia""[All Fields]) AND (""coronavirus""[All Fields] OR ""coronaviruses""[All Fields])"
IE,IRL,"""Ireland""","(""Ireland""""[All Fields] OR ""Irish Free State""""[All Fields] OR ""Éire""[All Fields])","(""bat""[All Fields] OR ""bats""[All Fields] OR ""Chiroptera""[All Fields]) AND (""Ireland""""[All Fields] OR ""Irish Free State""""[All Fields] OR ""Éire""[All Fields]) AND (""coronavirus""[All Fields] OR ""coronaviruses""[All Fields])"
IM,IMN,"""Isle_of_Man""","(""Isle of Man""[All Fields])","(""bat""[All Fields] OR ""bats""[All Fields] OR ""Chiroptera""[All Fields]) AND (""Isle of Man""[All Fields]) AND (""coronavirus""[All Fields] OR ""coronaviruses""[All Fields])"
IL,ISR,"""Israel""","(""Israel""[All Fields] OR ""Holy Land""[All Fields] OR ""Jewish State""[All Fields])","(""bat""[All Fields] OR ""bats""[All Fields] OR ""Chiroptera""[All Fields]) AND (""Israel""[All Fields] OR ""Holy Land""[All Fields] OR ""Jewish State""[All Fields]) AND (""coronavirus""[All Fields] OR ""coronaviruses""[All Fields])"
IT,ITA,"""Italy""","(""Italy""[All Fields] OR ""Repubblica IItaliana""[All Fields] OR ""Italia""[All Fields])","(""bat""[All Fields] OR ""bats""[All Fields] OR ""Chiroptera""[All Fields]) AND (""Italy""[All Fields] OR ""Repubblica IItaliana""[All Fields] OR ""Italia""[All Fields]) AND (""coronavirus""[All Fields] OR ""coronaviruses""[All Fields])"
JM,JAM,"""Jamaica""","(""Jamaica""[All Fields] OR ""Xamayca""[All Fields])","(""bat""[All Fields] OR ""bats""[All Fields] OR ""Chiroptera""[All Fields]) AND (""Jamaica""[All Fields] OR ""Xamayca""[All Fields]) AND (""coronavirus""[All Fields] OR ""coronaviruses""[All Fields])"
JP,JPN,"""Japan""","(""Japan""[All Fields] OR ""Nippon""[All Fields] OR ""Yamato""[All Fields])","(""bat""[All Fields] OR ""bats""[All Fields] OR ""Chiroptera""[All Fields]) AND (""Japan""[All Fields] OR ""Nippon""[All Fields] OR ""Yamato""[All Fields]) AND (""coronavirus""[All Fields] OR ""coronaviruses""[All Fields])"
JE,JEY,"""Jersey""","(""Jersey""[All Fields])","(""bat""[All Fields] OR ""bats""[All Fields] OR ""Chiroptera""[All Fields]) AND (""Jersey""[All Fields]) AND (""coronavirus""[All Fields] OR ""coronaviruses""[All Fields])"
JO,JOR,"""Jordan""","(""Jordan""[All Fields] OR ""Hashemite Kingdom of Jordan""[All Fields])","(""bat""[All Fields] OR ""bats""[All Fields] OR ""Chiroptera""[All Fields]) AND (""Jordan""[All Fields] OR ""Hashemite Kingdom of Jordan""[All Fields]) AND (""coronavirus""[All Fields] OR ""coronaviruses""[All Fields])"
KZ,KAZ,"""Kazakhstan""","(""Kazakhstan""[All Fields] OR ""Kazakh Soviet Socialist Republic""[All Fields])","(""bat""[All Fields] OR ""bats""[All Fields] OR ""Chiroptera""[All Fields]) AND (""Kazakhstan""[All Fields] OR ""Kazakh Soviet Socialist Republic""[All Fields]) AND (""coronavirus""[All Fields] OR ""coronaviruses""[All Fields])"
KE,KEN,"""Kenya""","(""Kenya""[All Fields] OR ""East Africa Protecctorate""[All Fields])","(""bat""[All Fields] OR ""bats""[All Fields] OR ""Chiroptera""[All Fields]) AND (""Kenya""[All Fields] OR ""East Africa Protecctorate""[All Fields]) AND (""coronavirus""[All Fields] OR ""coronaviruses""[All Fields])"
KI,KIR,"""Kiribati""","(""Kiribati""[All Fields])","(""bat""[All Fields] OR ""bats""[All Fields] OR ""Chiroptera""[All Fields]) AND (""Kiribati""[All Fields]) AND (""coronavirus""[All Fields] OR ""coronaviruses""[All Fields])"
KW,KWT,"""Kuwait""","(""Kuwait""[All Fields])","(""bat""[All Fields] OR ""bats""[All Fields] OR ""Chiroptera""[All Fields]) AND (""Kuwait""[All Fields]) AND (""coronavirus""[All Fields] OR ""coronaviruses""[All Fields])"
KG,KGZ,"""Kyrgyzstan""","(""Kyrgyzstan""[All Fields] OR ""Kyrgyz Republic""[All Fields] OR ""Kirghiz Soviet Socialist Republic""[All Fields])","(""bat""[All Fields] OR ""bats""[All Fields] OR ""Chiroptera""[All Fields]) AND (""Kyrgyzstan""[All Fields] OR ""Kyrgyz Republic""[All Fields] OR ""Kirghiz Soviet Socialist Republic""[All Fields]) AND (""coronavirus""[All Fields] OR ""coronaviruses""[All Fields])"
LA,LAO,"""Lao""","(""Lao People's Democratic Republic""[All Fields] OR ""Laos""[All Fields] OR ""Lao""[All Fields])","(""bat""[All Fields] OR ""bats""[All Fields] OR ""Chiroptera""[All Fields]) AND (""Lao People's Democratic Republic""[All Fields] OR ""Laos""[All Fields] OR ""Lao""[All Fields]) AND (""coronavirus""[All Fields] OR ""coronaviruses""[All Fields])"
LV,LVA,"""Latvia""","(""Latvia""[All Fields] OR ""Latvija""[All Fields] OR ""Lettland""[All Fields] OR ""Letland""[All Fields] OR ""Letonija""[All Fields] OR ""Letonnie""[All Fields])","(""bat""[All Fields] OR ""bats""[All Fields] OR ""Chiroptera""[All Fields]) AND (""Latvia""[All Fields] OR ""Latvija""[All Fields] OR ""Lettland""[All Fields] OR ""Letland""[All Fields] OR ""Letonija""[All Fields] OR ""Letonnie""[All Fields]) AND (""coronavirus""[All Fields] OR ""coronaviruses""[All Fields])"
LB,LBN,"""Lebanon""","(""Lebanon""[All Fields] OR ""Lebanese Republic""[All Fields] OR ""Lebnan""[All Fields] OR ""Al-Jumhuriyya Al-Lubnaniyya""[All Fields])","(""bat""[All Fields] OR ""bats""[All Fields] OR ""Chiroptera""[All Fields]) AND (""Lebanon""[All Fields] OR ""Lebanese Republic""[All Fields] OR ""Lebnan""[All Fields] OR ""Al-Jumhuriyya Al-Lubnaniyya""[All Fields]) AND (""coronavirus""[All Fields] OR ""coronaviruses""[All Fields])"
LS,LSO,"""Lesotho""","(""Lesotho""[All Fields] OR ""Basutoland""[All Fields])","(""bat""[All Fields] OR ""bats""[All Fields] OR ""Chiroptera""[All Fields]) AND (""Lesotho""[All Fields] OR ""Basutoland""[All Fields]) AND (""coronavirus""[All Fields] OR ""coronaviruses""[All Fields])"
LR,LBR,"""Liberia""","(""Liberia""[All Fields])","(""bat""[All Fields] OR ""bats""[All Fields] OR ""Chiroptera""[All Fields]) AND (""Liberia""[All Fields]) AND (""coronavirus""[All Fields] OR ""coronaviruses""[All Fields])"
LY,LBY,"""Libya""","(""Libya""[All Fields])","(""bat""[All Fields] OR ""bats""[All Fields] OR ""Chiroptera""[All Fields]) AND(""Libya""[All Fields]) AND (""coronavirus""[All Fields] OR ""coronaviruses""[All Fields])"
LI,LIE,"""Liechtenstein""","(""Liechtenstein""[All Fields])","(""bat""[All Fields] OR ""bats""[All Fields] OR ""Chiroptera""[All Fields]) AND (""Liechtenstein""[All Fields]) AND (""coronavirus""[All Fields] OR ""coronaviruses""[All Fields])"
LT,LTU,"""Lithuania""","(""Lithuania""[All Fields] OR ""Lietuva""[All Fields])","(""bat""[All Fields] OR ""bats""[All Fields] OR ""Chiroptera""[All Fields]) AND (""Lithuania""[All Fields] OR ""Lietuva""[All Fields]) AND (""coronavirus""[All Fields] OR ""coronaviruses""[All Fields])"
LU,LUX,"""Luxembourg""","(""Luxembourg""[All Fields] OR ""Luxemburg""[All Fields])","(""bat""[All Fields] OR ""bats""[All Fields] OR ""Chiroptera""[All Fields]) AND (""Luxembourg""[All Fields] OR ""Luxemburg""[All Fields]) AND (""coronavirus""[All Fields] OR ""coronaviruses""[All Fields])"
MO,MAC,"""Macao""","(""Macao""[All Fields])","(""bat""[All Fields] OR ""bats""[All Fields] OR ""Chiroptera""[All Fields]) AND (""Macao""[All Fields]) AND (""coronavirus""[All Fields] OR ""coronaviruses""[All Fields])"
MK,MKD,"""Macedonia""","(""Republic of Macedonia""[All Fields] OR ""Macedonia""[All Fields])","(""bat""[All Fields] OR ""bats""[All Fields] OR ""Chiroptera""[All Fields]) AND (""Republic of Macedonia""[All Fields] OR ""Macedonia""[All Fields]) AND (""coronavirus""[All Fields] OR ""coronaviruses""[All Fields])"
MG,MDG,"""Madagascar""","(""Madagascar""[All Fields])","(""bat""[All Fields] OR ""bats""[All Fields] OR ""Chiroptera""[All Fields]) AND (""Madagascar""[All Fields]) AND (""coronavirus""[All Fields] OR ""coronaviruses""[All Fields])"
MW,MWI,"""Malawi""","(""Malawi""[All Fields] OR ""Nyasaland""[All Fields])","(""bat""[All Fields] OR ""bats""[All Fields] OR ""Chiroptera""[All Fields]) AND (""Malawi""[All Fields] OR ""Nyasaland""[All Fields]) AND (""coronavirus""[All Fields] OR ""coronaviruses""[All Fields])"
MY,MYS,"""Malaysia""","(""Malaysia""[All Fields] OR ""Tanah Melayu""[All Fields])","(""bat""[All Fields] OR ""bats""[All Fields] OR ""Chiroptera""[All Fields]) AND (""Malaysia""[All Fields] OR ""Tanah Melayu""[All Fields]) AND (""coronavirus""[All Fields] OR ""coronaviruses""[All Fields])"
MV,MDV,"""Maldives""","(""Maldives""[All Fields] OR ""Maldive Islands""[All Fields])","(""bat""[All Fields] OR ""bats""[All Fields] OR ""Chiroptera""[All Fields]) AND (""Maldives""[All Fields] OR ""Maldive Islands""[All Fields]) AND (""coronavirus""[All Fields] OR ""coronaviruses""[All Fields])"
ML,MLI,"""Mali""","(""Mali""[All Fields])","(""bat""[All Fields] OR ""bats""[All Fields] OR ""Chiroptera""[All Fields]) AND (""Mali""[All Fields]) AND (""coronavirus""[All Fields] OR ""coronaviruses""[All Fields])"
MT,MLT,"""Malta""","(""Malta""[All Fields])","(""bat""[All Fields] OR ""bats""[All Fields] OR ""Chiroptera""[All Fields]) AND (""Malta""[All Fields]) AND (""coronavirus""[All Fields] OR ""coronaviruses""[All Fields])"
FK,FLK,"""Malvinas""","(""Falkland Islands""[All Fields] OR ""Malvinas""[All Fields])","(""bat""[All Fields] OR ""bats""[All Fields] OR ""Chiroptera""[All Fields]) AND (""Falkland Islands""[All Fields] OR ""Malvinas""[All Fields]) AND (""coronavirus""[All Fields] OR ""coronaviruses""[All Fields])"
MH,MHL,"""Marshall_Islands""","(""Marshall Islands""[All Fields])","(""bat""[All Fields] OR ""bats""[All Fields] OR ""Chiroptera""[All Fields]) AND (""Marshall Islands""[All Fields]) AND (""coronavirus""[All Fields] OR ""coronaviruses""[All Fields])"
MQ,MTQ,"""Martinique""","(""Martinique""[All Fields])","(""bat""[All Fields] OR ""bats""[All Fields] OR ""Chiroptera""[All Fields]) AND (""Martinique""[All Fields]) AND (""coronavirus""[All Fields] OR ""coronaviruses""[All Fields])"
MR,MRT,"""Mauritania""","(""Mauritania""[All Fields] OR ""République Islamique de Mauritanie""[All Fields])","(""bat""[All Fields] OR ""bats""[All Fields] OR ""Chiroptera""[All Fields]) AND (""Mauritania""[All Fields] OR ""République Islamique de Mauritanie""[All Fields]) AND (""coronavirus""[All Fields] OR ""coronaviruses""[All Fields])"
MU,MUS,"""Mauritius""","(""Mauritius""[All Fields])","(""bat""[All Fields] OR ""bats""[All Fields] OR ""Chiroptera""[All Fields]) AND (""Mauritius""[All Fields]) AND (""coronavirus""[All Fields] OR ""coronaviruses""[All Fields])"
YT,MYT,"""Mayotte""","(""Mayotte""[All Fields])","(""bat""[All Fields] OR ""bats""[All Fields] OR ""Chiroptera""[All Fields]) AND (""Mayotte""[All Fields]) AND (""coronavirus""[All Fields] OR ""coronaviruses""[All Fields])"
MX,MEX,"""Mexico""","(""Mexico""[All Fields] OR ""United Mexican States""[All Fields] OR ""Estados Unidos Mexicanos""[All Fields] OR ""República Mexicana""[All Fields] OR ""Méjico""[All Fields])","(""bat""[All Fields] OR ""bats""[All Fields] OR ""Chiroptera""[All Fields]) AND (""Mexico""[All Fields] OR ""United Mexican States""[All Fields] OR ""Estados Unidos Mexicanos""[All Fields] OR ""República Mexicana""[All Fields] OR ""Méjico""[All Fields]) AND (""coronavirus""[All Fields] OR ""coronaviruses""[All Fields])"
FM,FSM,"""Micronesia""","(""Micronesia,_Federated States of""[All Fields] OR ""Micronesia""[All Fields] OR ""Federated States of Micronesia""[All Fields])","(""bat""[All Fields] OR ""bats""[All Fields] OR ""Chiroptera""[All Fields]) AND (""Micronesia,_Federated States of""[All Fields] OR ""Micronesia""[All Fields] OR ""Federated States of Micronesia""[All Fields]) AND (""coronavirus""[All Fields] OR ""coronaviruses""[All Fields])"
MD,MDA,"""Moldova""","(""Moldova""[All Fields] OR ""Moldavian Soviet Socialist Republic""[All Fields])","(""bat""[All Fields] OR ""bats""[All Fields] OR ""Chiroptera""[All Fields]) AND (""Moldova""[All Fields] OR ""Moldavian Soviet Socialist Republic""[All Fields]) AND (""coronavirus""[All Fields] OR ""coronaviruses""[All Fields])"
MC,MCO,"""Monaco""","(""Monaco""[All Fields] OR ""Al Mamkaka Al Maghribiya""[All Fields])","(""bat""[All Fields] OR ""bats""[All Fields] OR ""Chiroptera""[All Fields]) AND (""Monaco""[All Fields] OR ""Al Mamkaka Al Maghribiya""[All Fields]) AND (""coronavirus""[All Fields] OR ""coronaviruses""[All Fields])"
MN,MNG,"""Mongolia""","(""Mongolia""[All Fields])","(""bat""[All Fields] OR ""bats""[All Fields] OR ""Chiroptera""[All Fields]) AND (""Mongolia""[All Fields]) AND (""coronavirus""[All Fields] OR ""coronaviruses""[All Fields])"
ME,MNE,"""Montenegro""","(""Montenegro""[All Fields])","(""bat""[All Fields] OR ""bats""[All Fields] OR ""Chiroptera""[All Fields]) AND (""Montenegro""[All Fields]) AND (""coronavirus""[All Fields] OR ""coronaviruses""[All Fields])"
MS,MSR,"""Montserrat""","(""Montserrat""[All Fields])","(""bat""[All Fields] OR ""bats""[All Fields] OR ""Chiroptera""[All Fields]) AND (""Montserrat""[All Fields]) AND (""coronavirus""[All Fields] OR ""coronaviruses""[All Fields])"
MA,MAR,"""Morocco""","(""Morocco""[All Fields])","(""bat""[All Fields] OR ""bats""[All Fields] OR ""Chiroptera""[All Fields]) AND (""Morocco""[All Fields]) AND (""coronavirus""[All Fields] OR ""coronaviruses""[All Fields])"
MZ,MOZ,"""Mozambique""","(""Mozambique""[All Fields])","(""bat""[All Fields] OR ""bats""[All Fields] OR ""Chiroptera""[All Fields]) AND (""Mozambique""[All Fields]) AND (""coronavirus""[All Fields] OR ""coronaviruses""[All Fields])"
MM,MMR,"""Myanmar""","(""Myanmar""[All Fields] OR ""Burma""[All Fields])","(""bat""[All Fields] OR ""bats""[All Fields] OR ""Chiroptera""[All Fields]) AND (""Myanmar""[All Fields] OR ""Burma""[All Fields]) AND (""coronavirus""[All Fields] OR ""coronaviruses""[All Fields])"
NA,NAM,"""Namibia""","(""Namibia""[All Fields])","(""bat""[All Fields] OR ""bats""[All Fields] OR ""Chiroptera""[All Fields]) AND (""Namibia""[All Fields]) AND (""coronavirus""[All Fields] OR ""coronaviruses""[All Fields])"
NR,NRU,"""Nauru""","(""Nauru""[All Fields])","(""bat""[All Fields] OR ""bats""[All Fields] OR ""Chiroptera""[All Fields]) AND (""Nauru""[All Fields]) AND (""coronavirus""[All Fields] OR ""coronaviruses""[All Fields])"
NP,NPL,"""Nepal""","(""Nepal""[All Fields])","(""bat""[All Fields] OR ""bats""[All Fields] OR ""Chiroptera""[All Fields]) AND (""Nepal""[All Fields]) AND (""coronavirus""[All Fields] OR ""coronaviruses""[All Fields])"
NL,NLD,"""Netherlands""","(""Netherlands""[All Fields] OR ""Batavia""[All Fields] OR ""Koninkrijk der Nederlanden""[All Fields] OR ""Nederland""[All Fields)","(""bat""[All Fields] OR ""bats""[All Fields] OR ""Chiroptera""[All Fields]) AND (""Netherlands""[All Fields] OR ""Batavia""[All Fields] OR ""Koninkrijk der Nederlanden""[All Fields] OR ""Nederland""[All Fields) AND (""coronavirus""[All Fields] OR ""coronaviruses""[All Fields])"
NC,NCL,"""New_Caledonia""","(""New Caledonia""[All Fields])","(""bat""[All Fields] OR ""bats""[All Fields] OR ""Chiroptera""[All Fields]) AND (""New Caledonia""[All Fields]) AND (""coronavirus""[All Fields] OR ""coronaviruses""[All Fields])"
NZ,NZL,"""New_Zealand""","(""New Zealand""[All Fields] OR ""Aotearoa""[All Fields])","(""bat""[All Fields] OR ""bats""[All Fields] OR ""Chiroptera""[All Fields]) AND (""New Zealand""[All Fields] OR ""Aotearoa""[All Fields]) AND (""coronavirus""[All Fields] OR ""coronaviruses""[All Fields])"
NI,NIC,"""Nicaragua""","(""Nicaragua""[All Fields])","(""bat""[All Fields] OR ""bats""[All Fields] OR ""Chiroptera""[All Fields]) AND (""Nicaragua""[All Fields]) AND (""coronavirus""[All Fields] OR ""coronaviruses""[All Fields])"
NE,NER,"""Niger""","(""Niger""[All Fields])","(""bat""[All Fields] OR ""bats""[All Fields] OR ""Chiroptera""[All Fields]) AND (""Niger""[All Fields]) AND (""coronavirus""[All Fields] OR ""coronaviruses""[All Fields])"
NG,NGA,"""Nigeria""","(""Nigeria""[All Fields])","(""bat""[All Fields] OR ""bats""[All Fields] OR ""Chiroptera""[All Fields]) AND (""Nigeria""[All Fields]) AND (""coronavirus""[All Fields] OR ""coronaviruses""[All Fields])"
NU,NIU,"""Niue""","(""Niue""[All Fields])","(""bat""[All Fields] OR ""bats""[All Fields] OR ""Chiroptera""[All Fields]) AND (""Niue""[All Fields]) AND (""coronavirus""[All Fields] OR ""coronaviruses""[All Fields])"
NF,NFK,"""Norfolk_Island""","(""Norfolk Island""[All Fields])","(""bat""[All Fields] OR ""bats""[All Fields] OR ""Chiroptera""[All Fields]) AND (""Norfolk Island""[All Fields]) AND (""coronavirus""[All Fields] OR ""coronaviruses""[All Fields])"
KP,PRK,"""North_Korea""","(""Democratic People's Republic of Korea""[All Fields] OR ""North Korea""[All Fields] OR ""Choson Minjujuui Inmin Konghwaguk""[All Fields])","(""bat""[All Fields] OR ""bats""[All Fields] OR ""Chiroptera""[All Fields]) AND (""Democratic People's Republic of Korea""[All Fields] OR ""North Korea""[All Fields] OR ""Choson Minjujuui Inmin Konghwaguk""[All Fields]) AND (""coronavirus""[All Fields] OR ""coronaviruses""[All Fields])"
MP,MNP,"""Northern_Mariana_Islands""","(""Northern Mariana Islands""[All Fields])","(""bat""[All Fields] OR ""bats""[All Fields] OR ""Chiroptera""[All Fields]) AND (""Northern Mariana Islands""[All Fields]) AND (""coronavirus""[All Fields] OR ""coronaviruses""[All Fields])"
NO,NOR,"""Norway""","(""Norway""[All Fields] OR ""Norge""[All Fields])","(""bat""[All Fields] OR ""bats""[All Fields] OR ""Chiroptera""[All Fields]) AND (""Norway""[All Fields] OR ""Norge""[All Fields]) AND (""coronavirus""[All Fields] OR ""coronaviruses""[All Fields])"
OM,OMN,"""Oman""","(""Oman""[All Fields] OR ""Sultanate of Oman""[All Fields] OR ""Sultanate of Muscat and Oman""[All Fields])","(""bat""[All Fields] OR ""bats""[All Fields] OR ""Chiroptera""[All Fields]) AND (""Oman""[All Fields] OR ""Sultanate of Oman""[All Fields] OR ""Sultanate of Muscat and Oman""[All Fields]) AND (""coronavirus""[All Fields] OR ""coronaviruses""[All Fields])"
PK,PAK,"""Pakistan""","(""Pakistan""[All Fields])","(""bat""[All Fields] OR ""bats""[All Fields] OR ""Chiroptera""[All Fields]) AND (""Pakistan""[All Fields]) AND (""coronavirus""[All Fields] OR ""coronaviruses""[All Fields])"
PW,PLW,"""Palau""","(""Palau""[All Fields] OR ""Belau""[All Fields])","(""bat""[All Fields] OR ""bats""[All Fields] OR ""Chiroptera""[All Fields]) AND (""Palau""[All Fields] OR ""Belau""[All Fields]) AND (""coronavirus""[All Fields] OR ""coronaviruses""[All Fields])"
PS,PSE,"""Palestine""","(""Palestine""[All Fields])","(""bat""[All Fields] OR ""bats""[All Fields] OR ""Chiroptera""[All Fields]) AND (""Palestine""[All Fields]) AND (""coronavirus""[All Fields] OR ""coronaviruses""[All Fields])"
PA,PAN,"""Panama""","(""Panama""[All Fields])","(""bat""[All Fields] OR ""bats""[All Fields] OR ""Chiroptera""[All Fields]) AND (""Panama""[All Fields]) AND (""coronavirus""[All Fields] OR ""coronaviruses""[All Fields])"
PG,PNG,"""Papua_New_Guinea""","(""Papua New Guinea""[All Fields])","(""bat""[All Fields] OR ""bats""[All Fields] OR ""Chiroptera""[All Fields]) AND (""Papua New Guinea""[All Fields]) AND (""coronavirus""[All Fields] OR ""coronaviruses""[All Fields])"
PY,PRY,"""Paraguay""","(""Paraguay""[All Fields])","(""bat""[All Fields] OR ""bats""[All Fields] OR ""Chiroptera""[All Fields]) AND (""Paraguay""[All Fields]) AND (""coronavirus""[All Fields] OR ""coronaviruses""[All Fields])"
PE,PER,"""Peru""","(""Peru""[All Fields] OR ""Peruvian Republic""[All Fields] OR ""Republica Peruana""[All Fields])","(""bat""[All Fields] OR ""bats""[All Fields] OR ""Chiroptera""[All Fields]) AND (""Peru""[All Fields] OR ""Peruvian Republic""[All Fields] OR ""Republica Peruana""[All Fields]) AND (""coronavirus""[All Fields] OR ""coronaviruses""[All Fields])"
PH,PHL,"""Philippines""","(""Philippines""[All Fields] OR ""Pilipinas""[All Fields] OR ""Filipinas""[All Fields])","(""bat""[All Fields] OR ""bats""[All Fields] OR ""Chiroptera""[All Fields]) AND (""Philippines""[All Fields] OR ""Pilipinas""[All Fields] OR ""Filipinas""[All Fields]) AND (""coronavirus""[All Fields] OR ""coronaviruses""[All Fields])"
PN,PCN,"""Pitcairn""","(""Pitcairn""[All Fields])","(""bat""[All Fields] OR ""bats""[All Fields] OR ""Chiroptera""[All Fields]) AND (""Pitcairn""[All Fields]) AND (""coronavirus""[All Fields] OR ""coronaviruses""[All Fields])"
PL,POL,"""Poland""","(""Poland""[All Fields] OR ""Polska""[All Fields] OR ""Rzeczpospolita""[All Fields])","(""bat""[All Fields] OR ""bats""[All Fields] OR ""Chiroptera""[All Fields]) AND (""Poland""[All Fields] OR ""Polska""[All Fields] OR ""Rzeczpospolita""[All Fields]) AND (""coronavirus""[All Fields] OR ""coronaviruses""[All Fields])"
PT,PRT,"""Portugal""","(""Portugal""[All Fields] OR ""Portuguese Republic""[All Fields] ""Lusitania""[All Fields])","(""bat""[All Fields] OR ""bats""[All Fields] OR ""Chiroptera""[All Fields]) AND (""Portugal""[All Fields] OR ""Portuguese Republic""[All Fields] ""Lusitania""[All Fields]) AND (""coronavirus""[All Fields] OR ""coronaviruses""[All Fields])"
PR,PRI,"""Puerto_Rico""","(""Puerto Rico""[All Fields])","(""bat""[All Fields] OR ""bats""[All Fields] OR ""Chiroptera""[All Fields]) AND (""Puerto Rico""[All Fields]) AND (""coronavirus""[All Fields] OR ""coronaviruses""[All Fields])"
QA,QAT,"""Qatar""","(""Qatar""[All Fields])","(""bat""[All Fields] OR ""bats""[All Fields] OR ""Chiroptera""[All Fields]) AND (""Qatar""[All Fields]) AND (""coronavirus""[All Fields] OR ""coronaviruses""[All Fields])"
RE,REU,"""Reunion""","(""Reunion""[All Fields])","(""bat""[All Fields] OR ""bats""[All Fields] OR ""Chiroptera""[All Fields]) AND (""Reunion""[All Fields]) AND (""coronavirus""[All Fields] OR ""coronaviruses""[All Fields])"
RO,ROU,"""Romania""","(""Romania""[All Fields] OR ""Rumania""[All Fields] OR ""Roumania""[All Fields])","(""bat""[All Fields] OR ""bats""[All Fields] OR ""Chiroptera""[All Fields]) AND (""Romania""[All Fields] OR ""Rumania""[All Fields] OR ""Roumania""[All Fields]) AND (""coronavirus""[All Fields] OR ""coronaviruses""[All Fields])"
RU,RUS,"""Russia""","(""Russian Federation""[All Fields] OR ""Russia""[All Fields])","(""bat""[All Fields] OR ""bats""[All Fields] OR ""Chiroptera""[All Fields]) AND (""Russian Federation""[All Fields] OR ""Russia""[All Fields]) AND (""coronavirus""[All Fields] OR ""coronaviruses""[All Fields])"
RW,RWA,"""Rwanda""","(""Rwanda""[All Fields] OR ""Rwandese Republic""[All Fields] OR ""Ruanda""[All Fields])","(""bat""[All Fields] OR ""bats""[All Fields] OR ""Chiroptera""[All Fields]) AND (""Rwanda""[All Fields] OR ""Rwandese Republic""[All Fields] OR ""Ruanda""[All Fields]) AND (""coronavirus""[All Fields] OR ""coronaviruses""[All Fields])"
BL,BLM,"""Saint_Barthelemy""","(""Saint Barthelemy""[All Fields])","(""bat""[All Fields] OR ""bats""[All Fields] OR ""Chiroptera""[All Fields]) AND (""Saint_Barthelemy""[All Fields]) AND (""coronavirus""[All Fields] OR ""coronaviruses""[All Fields])"
SH,SHN,"""Saint_Helena""","(""Saint Helena""[All Fields] OR ""Ascension""[All Fields] OR ""Tristan da Cunha""[All Fields])","(""bat""[All Fields] OR ""bats""[All Fields] OR ""Chiroptera""[All Fields]) AND (""Saint Helena""[All Fields] OR ""Ascension""[All Fields] OR ""Tristan da Cunha""[All Fields]) AND (""coronavirus""[All Fields] OR ""coronaviruses""[All Fields])"
KN,KNA,"""Saint_Kitts_""","(""Saint Kitts""[All Fields] OR ""Nevis""[All Fields])","(""bat""[All Fields] OR ""bats""[All Fields] OR ""Chiroptera""[All Fields]) AND (""Saint Kitts""[All Fields] OR ""Nevis""[All Fields]) AND (""coronavirus""[All Fields] OR ""coronaviruses""[All Fields])"
LC,LCA,"""Saint_Lucia""","(""Saint Lucia""[All Fields])","(""bat""[All Fields] OR ""bats""[All Fields] OR ""Chiroptera""[All Fields]) AND (""Saint Lucia""[All Fields]) AND (""coronavirus""[All Fields] OR ""coronaviruses""[All Fields])"
PM,SPM,"""Saint_Pierre""","(""Saint Pierre""[All Fields] OR ""Miquelon""[All Fields])","(""bat""[All Fields] OR ""bats""[All Fields] OR ""Chiroptera""[All Fields]) AND (""Saint Pierre""[All Fields] OR ""Miquelon""[All Fields]) AND (""coronavirus""[All Fields] OR ""coronaviruses""[All Fields])"
VC,VCT,"""Saint_Vincent""","(""Saint Vincent and the Grenadines""[All Fields] OR ""Saint Vincent""[All Fields] OR ""Grenadines""[All Fields] OR ""Hairouna""[All Fields])","(""bat""[All Fields] OR ""bats""[All Fields] OR ""Chiroptera""[All Fields]) AND (""Saint Vincent and the Grenadines""[All Fields] OR ""Saint Vincent""[All Fields] OR ""Grenadines""[All Fields] OR ""Hairouna""[All Fields]) AND (""coronavirus""[All Fields] OR ""coronaviruses""[All Fields])"
WS,WSM,"""Samoa""","(""Samoa""[All Fields])","(""bat""[All Fields] OR ""bats""[All Fields] OR ""Chiroptera""[All Fields]) AND (""Samoa""[All Fields]) AND (""coronavirus""[All Fields] OR ""coronaviruses""[All Fields])"
SM,SMR,"""San_Marino""","(""San Marino""[All Fields])","(""bat""[All Fields] OR ""bats""[All Fields] OR ""Chiroptera""[All Fields]) AND (""San Marino""[All Fields]) AND (""coronavirus""[All Fields] OR ""coronaviruses""[All Fields])"
ST,STP,"""Sao_Tome""","(""Sao Tome and Principe""[All Fields] OR ""Sao Tome""[All Fields] OR ""Principe""[All Fields])","(""bat""[All Fields] OR ""bats""[All Fields] OR ""Chiroptera""[All Fields]) AND (""Sao Tome and Principe""[All Fields] OR ""Sao Tome""[All Fields] OR ""Principe""[All Fields]) AND (""coronavirus""[All Fields] OR ""coronaviruses""[All Fields])"
SA,SAU,"""Saudi_Arabia""","(""Saudi Arabia""[All Fields])","(""bat""[All Fields] OR ""bats""[All Fields] OR ""Chiroptera""[All Fields]) AND (""Saudi Arabia""[All Fields]) AND (""coronavirus""[All Fields] OR ""coronaviruses""[All Fields])"
SN,SEN,"""Senegal""","(""Senegal""[All Fields])","(""bat""[All Fields] OR ""bats""[All Fields] OR ""Chiroptera""[All Fields]) AND (""Senegal""[All Fields]) AND (""coronavirus""[All Fields] OR ""coronaviruses""[All Fields])"
RS,SRB,"""Serbia""","(""Serbia""[All Fields] OR ""Servia""[All Fields] OR ""Serboslavia""[All Fields])","(""bat""[All Fields] OR ""bats""[All Fields] OR ""Chiroptera""[All Fields]) AND (""Serbia""[All Fields] OR ""Servia""[All Fields] OR ""Serboslavia""[All Fields]) AND (""coronavirus""[All Fields] OR ""coronaviruses""[All Fields])"
SC,SYC,"""Seychelles""","(""Seychelles""[All Fields])","(""bat""[All Fields] OR ""bats""[All Fields] OR ""Chiroptera""[All Fields]) AND (""Seychelles""[All Fields]) AND (""coronavirus""[All Fields] OR ""coronaviruses""[All Fields])"
SL,SLE,"""Sierra_Leone""","(""Sierra Leone""[All Fields])","(""bat""[All Fields] OR ""bats""[All Fields] OR ""Chiroptera""[All Fields]) AND (""Sierra Leone""[All Fields]) AND (""coronavirus""[All Fields] OR ""coronaviruses""[All Fields])"
SG,SGP,"""Singapore""","(""Singapore""[All Fields] OR ""Singapura""[All Fields])","(""bat""[All Fields] OR ""bats""[All Fields] OR ""Chiroptera""[All Fields]) AND (""Singapore""[All Fields] OR ""Singapura""[All Fields]) AND (""coronavirus""[All Fields] OR ""coronaviruses""[All Fields])"
SX,SXM,"""Sint_Maarten""","(""Sint Maarten""[All Fields])","(""bat""[All Fields] OR ""bats""[All Fields] OR ""Chiroptera""[All Fields]) AND (""Sint Maarten""[All Fields]) AND (""coronavirus""[All Fields] OR ""coronaviruses""[All Fields])"
SK,SVK,"""Slovakia""","(""Slovakia""[All Fields] OR ""Slovak Republic""[All Fields] OR ""Slovensko""[All Fields] OR ""Slovak Socialist Republic""[All Fields])","(""bat""[All Fields] OR ""bats""[All Fields] OR ""Chiroptera""[All Fields]) AND (""Slovakia""[All Fields] OR ""Slovak Republic""[All Fields] OR ""Slovensko""[All Fields] OR ""Slovak Socialist Republic""[All Fields]) AND (""coronavirus""[All Fields] OR ""coronaviruses""[All Fields])"
SI,SVN,"""Slovenia""","(""Slovenia""[All Fields] OR ""Slovenija""[All Fields])","(""bat""[All Fields] OR ""bats""[All Fields] OR ""Chiroptera""[All Fields]) AND (""Slovenia""[All Fields] OR ""Slovenija""[All Fields]) AND (""coronavirus""[All Fields] OR ""coronaviruses""[All Fields])"
SB,SLB,"""Solomon_Islands""","(""Solomon Islands""[All Fields])","(""bat""[All Fields] OR ""bats""[All Fields] OR ""Chiroptera""[All Fields]) AND (""Solomon Islands""[All Fields]) AND (""coronavirus""[All Fields] OR ""coronaviruses""[All Fields])"
SO,SOM,"""Somalia""","(""Somalia""[All Fields])","(""bat""[All Fields] OR ""bats""[All Fields] OR ""Chiroptera""[All Fields]) AND (""Somalia""[All Fields]) AND (""coronavirus""[All Fields] OR ""coronaviruses""[All Fields])"
ZA,ZAF,"""South_Africa""","(""South Africa""[All Fields] OR ""Azania""[All Fields] OR ""Suid-Afrika""[All Fields])","(""bat""[All Fields] OR ""bats""[All Fields] OR ""Chiroptera""[All Fields]) AND (""South Africa""[All Fields] OR ""Azania""[All Fields] OR ""Suid-Afrika""[All Fields]) AND (""coronavirus""[All Fields] OR ""coronaviruses""[All Fields])"
GS,SGS,"""South_Georgia_""","(""South Georgia and the South Sandwich Islands""[All Fields] OR ""South Georgia""[All Fields] OR ""South Sandwich Islands""[All Fields])","(""bat""[All Fields] OR ""bats""[All Fields] OR ""Chiroptera""[All Fields]) AND (""South Georgia and the South Sandwich Islands""[All Fields] OR ""South Georgia""[All Fields] OR ""South Sandwich Islands""[All Fields]) AND (""coronavirus""[All Fields] OR ""coronaviruses""[All Fields])"
KR,KOR,"""South_Korea""","(""Korea,_Republic of""[All Fields] OR ""South Korea""[All Fields] OR ""Dae-han-min-guk""[All Fields])","(""bat""[All Fields] OR ""bats""[All Fields] OR ""Chiroptera""[All Fields]) AND (""Korea,_Republic of""[All Fields] OR ""South Korea""[All Fields] OR ""Dae-han-min-guk""[All Fields]) AND (""coronavirus""[All Fields] OR ""coronaviruses""[All Fields])"
SS,SSD,"""South_Sudan""","(""South Sudan""[All Fields])","(""bat""[All Fields] OR ""bats""[All Fields] OR ""Chiroptera""[All Fields]) AND (""South Sudan""[All Fields]) AND (""coronavirus""[All Fields] OR ""coronaviruses""[All Fields])"
ES,ESP,"""Spain""","(""Spain""[All Fields] OR ""España""[All Fields] OR ""Espainia""[All Fields] OR ""Iberia""[All Fields] OR ""Hispania""[All Fields])","(""bat""[All Fields] OR ""bats""[All Fields] OR ""Chiroptera""[All Fields]) AND (""Spain""[All Fields] OR ""España""[All Fields] OR ""Espainia""[All Fields] OR ""Iberia""[All Fields] OR ""Hispania""[All Fields]) AND (""coronavirus""[All Fields] OR ""coronaviruses""[All Fields])"
LK,LKA,"""Sri_Lanka""","(""Sri Lanka""[All Fields] OR ""Ceylon""[All Fields] OR ""Heladiva""[All Fields])","(""bat""[All Fields] OR ""bats""[All Fields] OR ""Chiroptera""[All Fields]) AND (""Sri Lanka""[All Fields] OR ""Ceylon""[All Fields] OR ""Heladiva""[All Fields]) AND (""coronavirus""[All Fields] OR ""coronaviruses""[All Fields])"
SD,SDN,"""Sudan""","(""Sudan""[All Fields] OR ""Mahdist State""[All Fields] OR ""Nubia""[All Fields])","(""bat""[All Fields] OR ""bats""[All Fields] OR ""Chiroptera""[All Fields]) AND (""Sudan""[All Fields] OR ""Mahdist State""[All Fields] OR ""Nubia""[All Fields]) AND (""coronavirus""[All Fields] OR ""coronaviruses""[All Fields])"
SR,SUR,"""Suriname""","(""Suriname""[All Fields] OR ""Dutch Guiana""[All Fields] OR ""Surinam""[All Fields])","(""bat""[All Fields] OR ""bats""[All Fields] OR ""Chiroptera""[All Fields]) AND (""Suriname""[All Fields] OR ""Dutch Guiana""[All Fields] OR ""Surinam""[All Fields]) AND (""coronavirus""[All Fields] OR ""coronaviruses""[All Fields])"
SJ,SJM,"""Svalbard_""","(""Svalbard and Jan Mayen""[All Fields] OR ""Svalbard""[All Fields] OR ""Jan Mayen""[All Fields])","(""bat""[All Fields] OR ""bats""[All Fields] OR ""Chiroptera""[All Fields]) AND (""Svalbard and Jan Mayen""[All Fields] OR ""Svalbard""[All Fields] OR ""Jan Mayen""[All Fields]) AND (""coronavirus""[All Fields] OR ""coronaviruses""[All Fields])"
SZ,SWZ,"""Swaziland""","(""Swaziland""[All Fields])","(""bat""[All Fields] OR ""bats""[All Fields] OR ""Chiroptera""[All Fields]) AND (""Swaziland""[All Fields]) AND (""coronavirus""[All Fields] OR ""coronaviruses""[All Fields])"
SE,SWE,"""Sweden""","(""Sweden""[All Fields] OR ""Sverige""[All Fields] OR ""Svea Rike""[All Fields])","(""bat""[All Fields] OR ""bats""[All Fields] OR ""Chiroptera""[All Fields]) AND (""Sweden""[All Fields] OR ""Sverige""[All Fields] OR ""Svea Rike""[All Fields]) AND (""coronavirus""[All Fields] OR ""coronaviruses""[All Fields])"
CH,CHE,"""Switzerland""","(""Switzerland""[All Fields] OR ""Swiss Confederation""[All Fields] OR ""Schweiz""[All Fields] OR ""Helvetia""[All Fields])","(""bat""[All Fields] OR ""bats""[All Fields] OR ""Chiroptera""[All Fields]) AND (""Switzerland""[All Fields] OR ""Swiss Confederation""[All Fields] OR ""Schweiz""[All Fields] OR ""Helvetia""[All Fields]) AND (""coronavirus""[All Fields] OR ""coronaviruses""[All Fields])"
SY,SYR,"""Syria""","(""Syria""[All Fields] OR ""Syrian Arab Republic""[All Fields] OR ""United Arab Republic""[All Fields] OR ""Syrian Republic""[All Fields])","(""bat""[All Fields] OR ""bats""[All Fields] OR ""Chiroptera""[All Fields]) AND (""Syria""[All Fields] OR ""Syrian Arab Republic""[All Fields] OR ""United Arab Republic""[All Fields] OR ""Syrian Republic""[All Fields]) AND (""coronavirus""[All Fields] OR ""coronaviruses""[All Fields])"
TW,TWN,"""Taiwan""","(""Taiwan""[All Fields])","(""bat""[All Fields] OR ""bats""[All Fields] OR ""Chiroptera""[All Fields]) AND (""Taiwan""[All Fields]) AND (""coronavirus""[All Fields] OR ""coronaviruses""[All Fields])"
TJ,TJK,"""Tajikistan""","(""Tajikistan""[All Fields])","(""bat""[All Fields] OR ""bats""[All Fields] OR ""Chiroptera""[All Fields]) AND (""Tajikistan""[All Fields]) AND (""coronavirus""[All Fields] OR ""coronaviruses""[All Fields])"
TZ,TZA,"""Tanzania""","(""Tanzania""[All Fields] OR ""United Republic of Tanganyika""[All Fields] OR ""Zanzibar""[All Fields])","(""bat""[All Fields] OR ""bats""[All Fields] OR ""Chiroptera""[All Fields]) AND (""Tanzania""[All Fields] OR ""United Republic of Tanganyika""[All Fields] OR ""Zanzibar""[All Fields]) AND (""coronavirus""[All Fields] OR ""coronaviruses""[All Fields])"
TH,THA,"""Thailand""","(""Thailand""[All Fields] OR ""Siam""[All Fields])","(""bat""[All Fields] OR ""bats""[All Fields] OR ""Chiroptera""[All Fields]) AND (""Thailand""[All Fields] OR ""Siam""[All Fields]) AND (""coronavirus""[All Fields] OR ""coronaviruses""[All Fields])"
TL,TLS,"""Timor-Leste""","(""Timor-Leste""[All Fields] OR ""Timor Leste""[All Fields])","(""bat""[All Fields] OR ""bats""[All Fields] OR ""Chiroptera""[All Fields]) AND (""Timor-Leste""[All Fields] OR ""Timor Leste""[All Fields]) AND (""coronavirus""[All Fields] OR ""coronaviruses""[All Fields])"
TG,TGO,"""Togo""","(""Togo""[All Fields])","(""bat""[All Fields] OR ""bats""[All Fields] OR ""Chiroptera""[All Fields]) AND (""Togo""[All Fields]) AND (""coronavirus""[All Fields] OR ""coronaviruses""[All Fields])"
TK,TKL,"""Tokelau""","(""Tokelau""[All Fields])","(""bat""[All Fields] OR ""bats""[All Fields] OR ""Chiroptera""[All Fields]) AND (""Tokelau""[All Fields]) AND (""coronavirus""[All Fields] OR ""coronaviruses""[All Fields])"
TO,TON,"""Tonga""","(""Tonga""[All Fields])","(""bat""[All Fields] OR ""bats""[All Fields] OR ""Chiroptera""[All Fields]) AND (""Tonga""[All Fields]) AND (""coronavirus""[All Fields] OR ""coronaviruses""[All Fields])"
TT,TTO,"""Trinidad_and_Tobago""","(""Trinidad and Tobago""[All Fields] OR ""Trinidad""[All Fields] OR ""Tobago""[All Fields] OR ""Iere""[All Fields])","(""bat""[All Fields] OR ""bats""[All Fields] OR ""Chiroptera""[All Fields]) AND (""Trinidad and Tobago""[All Fields] OR ""Trinidad""[All Fields] OR ""Tobago""[All Fields] OR ""Iere""[All Fields]) AND (""coronavirus""[All Fields] OR ""coronaviruses""[All Fields])"
TN,TUN,"""Tunisia""","(""Tunisia""[All Fields])","(""bat""[All Fields] OR ""bats""[All Fields] OR ""Chiroptera""[All Fields]) AND (""Tunisia""[All Fields]) AND (""coronavirus""[All Fields] OR ""coronaviruses""[All Fields])"
TR,TUR,"""Turkey""","(""Turkey""[All Fields] OR ""Anatolia""[All Fields] OR ""Turkisk Empire""[All Fields])","(""bat""[All Fields] OR ""bats""[All Fields] OR ""Chiroptera""[All Fields]) AND (""Turkey""[All Fields] OR ""Anatolia""[All Fields] OR ""Turkisk Empire""[All Fields]) AND (""coronavirus""[All Fields] OR ""coronaviruses""[All Fields])"
TM,TKM,"""Turkmenistan""","(""Turkmenistan""[All Fields])","(""bat""[All Fields] OR ""bats""[All Fields] OR ""Chiroptera""[All Fields]) AND (""Turkmenistan""[All Fields]) AND (""coronavirus""[All Fields] OR ""coronaviruses""[All Fields])"
TC,TCA,"""Turks_and_Caicos_Islands""","(""Turks and Caicos""[All Fields] OR ""Turks""[All Fields] OR ""Caicos""[All Fields])","(""bat""[All Fields] OR ""bats""[All Fields] OR ""Chiroptera""[All Fields]) AND (""Turks and Caicos""[All Fields] OR ""Turks""[All Fields] OR ""Caicos""[All Fields]) AND (""coronavirus""[All Fields] OR ""coronaviruses""[All Fields])"
TV,TUV,"""Tuvalu""","(""Tuvalu""[All Fields] OR ""Ellice Islands""[All Fields])","(""bat""[All Fields] OR ""bats""[All Fields] OR ""Chiroptera""[All Fields]) AND (""Tuvalu""[All Fields] OR ""Ellice Islands""[All Fields]) AND (""coronavirus""[All Fields] OR ""coronaviruses""[All Fields])"
UG,UGA,"""Uganda""","(""Uganda""[All Fields])","(""bat""[All Fields] OR ""bats""[All Fields] OR ""Chiroptera""[All Fields]) AND (""Uganda""[All Fields]) AND (""coronavirus""[All Fields] OR ""coronaviruses""[All Fields])"
UA,UKR,"""Ukraine""","(""Ukraine""[All Fields])","(""bat""[All Fields] OR ""bats""[All Fields] OR ""Chiroptera""[All Fields]) AND (""Ukraine""[All Fields]) AND (""coronavirus""[All Fields] OR ""coronaviruses""[All Fields])"
AE,ARE,"""United_Arab_Emirates""","(""United Arab Emirates""[All Fields]  OR ""Trucial States""[All Fields])","(""bat""[All Fields] OR ""bats""[All Fields] OR ""Chiroptera""[All Fields]) AND (""United Arab Emirates""[All Fields]  OR ""Trucial States""[All Fields]) AND (""coronavirus""[All Fields] OR ""coronaviruses""[All Fields])"
GB,GBR,"""United_Kingdom""","(""United Kingdom""[All Fields] OR ""Britian""[All Fields] OR ""Northern Ireland""[All Fields])","(""bat""[All Fields] OR ""bats""[All Fields] OR ""Chiroptera""[All Fields]) AND (""United Kingdom""[All Fields] OR ""Britian""[All Fields] OR ""Northern Ireland""[All Fields]) AND (""coronavirus""[All Fields] OR ""coronaviruses""[All Fields])"
UM,UMI,"""United_States_Minor_Outlying_Islands""","""United States Minor Outlying Islands""[All Fields])","(""bat""[All Fields] OR ""bats""[All Fields] OR ""Chiroptera""[All Fields]) AND ""United States Minor Outlying Islands""[All Fields]) AND (""coronavirus""[All Fields] OR ""coronaviruses""[All Fields])"
US,USA,"""United_States""","(""United States""[All Fields] OR ""USA""[All Fields] OR ""U.S.A.""[All Fields])","(""bat""[All Fields] OR ""bats""[All Fields] OR ""Chiroptera""[All Fields]) AND (""United States""[All Fields] OR ""USA""[All Fields] OR ""U.S.A.""[All Fields]) AND (""coronavirus""[All Fields] OR ""coronaviruses""[All Fields])"
UY,URY,"""Uruguay""","(""Uruguay""[All Fields])","(""bat""[All Fields] OR ""bats""[All Fields] OR ""Chiroptera""[All Fields]) AND (""Uruguay""[All Fields]) AND (""coronavirus""[All Fields] OR ""coronaviruses""[All Fields])"
UZ,UZB,"""Uzbekistan""","(""Uzbekistan""[All Fields])","(""bat""[All Fields] OR ""bats""[All Fields] OR ""Chiroptera""[All Fields]) AND (""Uzbekistan""[All Fields]) AND (""coronavirus""[All Fields] OR ""coronaviruses""[All Fields])"
VU,VUT,"""Vanuatu""","(""Vanuatu""[All Fields] OR ""New Hebrides""[All Fields])","(""bat""[All Fields] OR ""bats""[All Fields] OR ""Chiroptera""[All Fields]) AND (""Vanuatu""[All Fields] OR ""New Hebrides""[All Fields]) AND (""coronavirus""[All Fields] OR ""coronaviruses""[All Fields])"
VE,VEN,"""Venezuela""","(""Venezuela""[All Fields])","(""bat""[All Fields] OR ""bats""[All Fields] OR ""Chiroptera""[All Fields]) AND (""Venezuela""[All Fields]) AND (""coronavirus""[All Fields] OR ""coronaviruses""[All Fields])"
VN,VNM,"""Vietnam""","(""Viet Nam""[All Fields] OR ""Vietnam""[All Fields] OR ""An Nam""[All Fields] OR ""French Indochina""[All Fields])","(""bat""[All Fields] OR ""bats""[All Fields] OR ""Chiroptera""[All Fields]) AND (""Viet Nam""[All Fields] OR ""Vietnam""[All Fields] OR ""An Nam""[All Fields] OR ""French Indochina""[All Fields]) AND (""coronavirus""[All Fields] OR ""coronaviruses""[All Fields])"
VI,VIR,"""Virgin_Islands""","(""Virgin Islands,_U.S.""[All Fields] OR ""Virgin Islands""[All Fields])","(""bat""[All Fields] OR ""bats""[All Fields] OR ""Chiroptera""[All Fields]) AND (""Virgin Islands,_U.S.""[All Fields] OR ""Virgin Islands""[All Fields]) AND (""coronavirus""[All Fields] OR ""coronaviruses""[All Fields])"
WF,NA,"""Wallis_and_Futuna""","(""Wallis and Futuna""[All Fields])","(""bat""[All Fields] OR ""bats""[All Fields] OR ""Chiroptera""[All Fields]) AND (""Wallis and Futuna""[All Fields]) AND (""coronavirus""[All Fields] OR ""coronaviruses""[All Fields])"
EH,ESH,"""Western_Sahara""","(""Western Sahara""[All Fields])","(""bat""[All Fields] OR ""bats""[All Fields] OR ""Chiroptera""[All Fields]) AND (""Western Sahara""[All Fields]) AND (""coronavirus""[All Fields])"
YE,YEM,"""Yemen""","(""Yemen"" [All Fields])","(""bat""[All Fields] OR ""bats""[All Fields] OR ""Chiroptera""[All Fields]) AND (""Yemen"" [All Fields]) AND (""coronavirus""[All Fields] OR ""coronaviruses""[All Fields])"
ZM,ZMB,"""Zambia""","(""Zambia""[All Fields] OR ""Northern Rhodesia""[All Fields])","(""bat""[All Fields] OR ""bats""[All Fields] OR ""Chiroptera""[All Fields]) AND (""Zambia""[All Fields] OR ""Northern Rhodesia""[All Fields]) AND (""coronavirus""[All Fields] OR ""coronaviruses""[All Fields])"
ZW,ZWE,"""Zimbabwe""","(""Zimbabwe""[All Fields] OR ""Southern Rhodesia""[All Fields])","(""bat""[All Fields] OR ""bats""[All Fields] OR ""Chiroptera""[All Fields]) AND (""Zimbabwe""[All Fields] OR ""Southern Rhodesia""[All Fields]) AND (""coronavirus""[All Fields] OR ""coronaviruses""[All Fields])"
